OBJECT_NAME,OBJECT_ID,EPOCH,MEAN_MOTION,ECCENTRICITY,INCLINATION,RA_OF_ASC_NODE,ARG_OF_PERICENTER,MEAN_ANOMALY,EPHEMERIS_TYPE,CLASSIFICATION_TYPE,NORAD_CAT_ID,ELEMENT_SET_NO,REV_AT_EPOCH,BSTAR,MEAN_MOTION_DOT,MEAN_MOTION_DDOT
QIANFAN-135,2026-104J,2026-06-09T01:38:25.723392,14.12209103,.0004778,88.9854,342.5374,101.3187,258.8536,0,U,69081,999,393,-.12117E+1,-.2059206E-1,0
QIANFAN-136,2026-104K,2026-06-08T23:50:10.993920,14.13434397,.0004156,88.9857,342.5444,165.2876,194.8432,0,U,69082,999,392,-.12036E+1,-.2089592E-1,0
QIANFAN-137,2026-104L,2026-06-09T03:08:41.680608,14.24908271,.0005679,88.9862,342.5087,128.7644,231.4057,0,U,69083,999,395,.37407E-4,.102E-5,0
QIANFAN-138,2026-104M,2026-06-09T01:11:06.025920,14.11834947,.0009241,88.9856,342.5337,105.7259,254.4946,0,U,69084,999,393,-.10935E+1,-.1859999E-1,0
QIANFAN-139,2026-104N,2026-06-09T01:03:51.337152,14.12292597,.0008434,88.9854,342.5335,111.6187,248.5898,0,U,69085,999,393,-.11463E+1,-.1958891E-1,0
QIANFAN-140,2026-104P,2026-06-09T00:56:21.455808,14.12972468,.0007127,88.9853,342.5322,118.5292,241.6612,0,U,69086,999,393,-.11351E+1,-.1963645E-1,0
QIANFAN-141,2026-104Q,2026-06-08T23:07:36.322176,14.13664996,.0004376,88.9857,342.5402,138.6253,221.5266,0,U,69087,999,392,-.11402E+1,-.1994995E-1,0
QIANFAN-142,2026-104R,2026-06-09T00:39:59.313312,14.14042332,.0005657,88.9849,342.5307,139.7837,220.3769,0,U,69088,999,393,-.10821E+1,-.1912657E-1,0
QIANFAN-143,2026-104S,2026-06-09T02:01:20.425152,14.15623126,.0006293,88.9852,342.5207,171.8378,188.2913,0,U,69089,999,394,-.11316E+1,-.2048812E-1,0
QIANFAN-144,2026-104T,2026-06-09T00:28:55.776864,14.13724936,.0006342,88.9857,342.5305,134.5074,225.6632,0,U,69090,999,393,-.10335E+1,-.1822342E-1,0
ZHUQUE-2E R/B,2026-105A,2026-06-08T11:42:36.406368,15.14953575,.04570661,88.9716,195.4534,331.6899,26.0164,0,U,69095,999,383,.37616139E-3,.153293E-2,-.700057E-6
2026-106A,2026-106A,2026-06-04T15:09:10.862208,15.11037132,.0013466,97.5095,237.9435,203.5034,156.5582,0,U,69097,999,308,.543886E-3,.9052E-4,0
2026-106B,2026-106B,2026-06-04T15:16:55.543008,15.09575067,.00142668,97.5082,237.9319,199.5733,160.4950,0,U,69098,999,308,.42602016E-3,.6796E-4,0
2026-106C,2026-106C,2026-06-04T15:08:24.576864,15.11076088,.00135546,97.5097,237.9445,204.3760,155.6830,0,U,69099,999,308,.53277866E-3,.8876E-4,0
2026-106D,2026-106D,2026-06-04T15:05:56.171040,15.11202473,.00131226,97.5062,237.9411,207.0214,153.0334,0,U,69100,999,308,.49447297E-3,.826E-4,0
2026-106E,2026-106E,2026-06-04T15:00:25.283232,15.11460406,.0015124,97.5073,237.9468,208.9127,151.1267,0,U,69101,999,308,.54174936E-3,.9128E-4,0
DRAGON CRS-34,2026-107A,2026-06-09T04:35:05.112096,15.49678250,.000689,51.6332,339.6717,149.5560,210.5830,0,U,69103,999,57055,.12924E-3,.6847E-4,0
QIANFAN-145,2026-108A,2026-06-08T20:41:41.237376,14.12475911,.0016678,89.0114,23.1478,130.8066,229.4569,0,U,69104,999,316,-.12354E+1,-.2108512E-1,0
QIANFAN-146,2026-108B,2026-06-09T01:37:19.605792,14.16392185,.0014512,89.0116,23.1052,154.3785,205.8126,0,U,69105,999,320,-.99342E+0,-.1840466E-1,0
QIANFAN-147,2026-108C,2026-06-08T23:43:03.142848,14.11001569,.0021881,89.0113,23.1299,132.1322,228.1727,0,U,69106,999,318,-.11366E+1,-.1904458E-1,0
QIANFAN-148,2026-108D,2026-06-09T01:14:30.024096,14.12348657,.0019139,89.0112,23.1204,132.9176,227.3620,0,U,69107,999,319,-.1096E+1,-.1882782E-1,0
QIANFAN-149,2026-108E,2026-06-09T01:09:33.261696,14.12789051,.0019135,89.0115,23.1204,137.6686,222.5980,0,U,69108,999,319,-.10875E+1,-.1883434E-1,0
QIANFAN-150,2026-108F,2026-06-09T00:57:05.961312,14.14016203,.0016105,89.0117,23.1200,143.1246,217.1052,0,U,69109,999,319,-.1134E+1,-.1998996E-1,0
QIANFAN-151,2026-108G,2026-06-08T21:23:51.773280,14.14300885,.0017468,89.0115,23.1340,144.7220,215.5127,0,U,69110,999,317,-.10496E+1,-.1869518E-1,0
QIANFAN-152,2026-108H,2026-06-09T00:39:27.360000,14.15246250,.0014212,89.0108,23.1169,153.7104,206.4808,0,U,69111,999,319,-.10911E+1,-.1969302E-1,0
QIANFAN-153,2026-108J,2026-06-09T00:30:48.161664,14.13890541,.0018332,89.0111,23.1159,150.0804,210.1435,0,U,69112,999,319,-.93091E+0,-.1641978E-1,0
QIANFAN-154,2026-108K,2026-06-08T22:39:14.414112,14.15440524,.0014823,89.0116,23.1234,150.3978,209.8052,0,U,69113,999,318,-.10571E+1,-.191852E-1,0
QIANFAN-155,2026-108L,2026-06-09T00:25:44.208192,14.14761041,.0016666,89.0115,23.1163,145.3037,214.9241,0,U,69114,999,319,-.103E+1,-.1851283E-1,0
QIANFAN-156,2026-108M,2026-06-09T00:12:01.326816,14.15992405,.0013862,89.0118,23.1154,152.4194,207.7732,0,U,69115,999,319,-.10166E+1,-.18674E-1,0
QIANFAN-157,2026-108N,2026-06-08T23:32:16.666080,14.16574241,.0012674,89.0115,23.1106,148.5646,211.6302,0,U,69116,999,319,-.95411E+0,-.1757925E-1,0
QIANFAN-158,2026-108P,2026-06-09T00:02:33.408384,14.17928176,.0016552,89.0116,23.1138,164.5951,195.5745,0,U,69117,999,319,-.10993E+1,-.2077458E-1,0
QIANFAN-159,2026-108Q,2026-06-08T23:55:36.161184,14.18833185,.001606,89.0112,23.1124,159.1762,201.0085,0,U,69118,999,319,-.10741E+1,-.206519E-1,0
QIANFAN-160,2026-108R,2026-06-08T23:48:47.219616,14.18756166,.0012173,89.0126,23.1132,157.7843,202.3877,0,U,69119,999,319,-.1006E+1,-.1939842E-1,0
QIANFAN-161,2026-108S,2026-06-08T23:43:25.235328,14.18859156,.0013687,89.0123,23.1119,160.7448,199.4261,0,U,69120,999,319,-.10331E+1,-.1992239E-1,0
QIANFAN-162,2026-108T,2026-06-08T23:40:44.903712,14.19817573,.0017248,89.0114,23.1118,148.5171,211.7055,0,U,69121,999,319,-.10811E+1,-.2113788E-1,0
SMILE,2026-109A,2026-05-24T15:40:35.120928,14.57062785,.00091232,70.0007,229.2745,259.5159,100.4951,0,U,69123,999,80,-.42378883E-3,-.1976E-4,0
STARLINK-37726,2026-110A,2026-06-09T04:00:03.000096,15.49179285,.0001581,97.2861,356.3113,86.9159,315.2788,0,U,69124,999,436,-.27463E-3,-.14994E-3,0
STARLINK-37722,2026-110B,2026-06-09T04:00:03.000096,15.50952809,.0001509,97.2855,356.4726,95.1030,325.1481,0,U,69125,999,441,-.48312E-1,-.2484139E-1,0
STARLINK-37715,2026-110C,2026-06-09T04:00:03.000096,15.60313536,.0002205,97.2847,356.5498,95.9612,139.2303,0,U,69126,999,436,-.35994E-1,-.2551924E-1,0
STARLINK-37706,2026-110D,2026-06-09T04:00:03.000096,15.60665711,.0002256,97.2849,356.5538,97.1709,146.8235,0,U,69127,999,436,-.35197E-1,-.2532588E-1,0
STARLINK-37723,2026-110E,2026-06-09T04:00:03.000096,15.61038242,.0002257,97.2846,356.5582,99.8306,153.8676,0,U,69128,999,436,-.35261E-1,-.2568429E-1,0
STARLINK-37720,2026-110F,2026-06-09T04:00:03.000096,15.49193305,.0001699,97.2861,356.3324,91.5665,359.5289,0,U,69129,999,436,-.15464E-3,-.8493E-4,0
STARLINK-37533,2026-110G,2026-06-09T04:00:03.000096,15.62098815,.000208,97.2843,356.5690,104.0875,175.4925,0,U,69130,999,436,-.33684E-1,-.2558302E-1,0
STARLINK-37530,2026-110H,2026-06-09T04:00:03.000096,15.62461213,.0001992,97.2849,356.5733,107.5965,180.8908,0,U,69131,999,436,-.33403E-1,-.2571119E-1,0
STARLINK-37660,2026-110J,2026-06-09T04:00:03.000096,15.55548917,.0001703,97.2850,356.5042,83.5901,44.7389,0,U,69132,999,436,-.31319E-1,-.1891051E-1,0
STARLINK-37633,2026-110K,2026-06-09T04:00:03.000096,15.56970181,.0002224,97.2852,356.5132,83.0586,71.5974,0,U,69133,999,436,-.29641E-1,-.1887845E-1,0
STARLINK-37361,2026-110L,2026-06-09T04:00:03.000096,15.63556586,.0001554,97.2844,356.5799,98.7316,214.6139,0,U,69134,999,436,-.32814E-1,-.2627534E-1,0
STARLINK-37372,2026-110M,2026-06-09T04:00:03.000096,15.54376668,.000233,97.2847,356.5250,89.4243,98.0913,0,U,69135,999,436,-.49297E-1,-.2821771E-1,0
STARLINK-37531,2026-110N,2026-06-09T04:00:03.000096,15.62348959,.0001513,97.2843,356.5674,94.3506,182.3518,0,U,69136,999,436,-.93926E-2,-.756233E-2,0
STARLINK-37662,2026-110P,2026-06-09T04:00:03.000096,15.55104536,.000211,97.2849,356.5300,89.7661,96.5042,0,U,69137,999,436,-.43238E-1,-.252263E-1,0
STARLINK-37658,2026-110Q,2026-06-09T04:00:03.000096,15.49160540,.0001075,97.2854,356.4568,123.2382,257.5313,0,U,69138,999,436,-.31629E-3,-.17238E-3,0
STARLINK-37659,2026-110R,2026-06-09T04:00:03.000096,15.49204763,.0001414,97.2856,356.4378,96.2439,241.6679,0,U,69139,999,436,-.4924E-3,-.26795E-3,0
STARLINK-37653,2026-110S,2026-06-09T04:00:03.000096,15.49198296,.000105,97.2858,356.4321,98.2357,225.9423,0,U,69140,999,436,-.45066E-3,-.24532E-3,0
STARLINK-37654,2026-110T,2026-06-09T04:00:03.000096,15.54385872,.000203,97.2849,356.5293,96.1110,102.4877,0,U,69141,999,436,-.48073E-1,-.2760915E-1,0
STARLINK-37655,2026-110U,2026-06-09T04:00:03.000096,15.61266708,.0001895,97.2842,356.5604,100.3944,158.9819,0,U,69142,999,437,-.30398E-1,-.2273206E-1,0
STARLINK-37636,2026-110V,2026-06-09T04:00:03.000096,15.66735374,.0001495,97.2851,356.6102,77.0028,306.9590,0,U,69143,999,437,-.29152E-1,-.2648388E-1,0
STARLINK-37638,2026-110W,2026-06-09T04:00:03.000096,15.67206204,.0001649,97.2850,356.6140,78.7254,314.5220,0,U,69144,999,437,-.28847E-1,-.2668402E-1,0
STARLINK-37657,2026-110X,2026-06-09T04:00:03.000096,15.52946676,.0001939,97.2848,356.5342,95.0295,105.0687,0,U,69145,999,442,-.45385E-1,-.24563E-1,0
STARLINK-37639,2026-110Y,2026-06-09T04:00:03.000096,15.67776143,.0001664,97.2851,356.6200,75.8181,329.6598,0,U,69146,999,442,-.27701E-1,-.2629162E-1,0
STARLINK-37661,2026-110Z,2026-06-09T04:00:03.000096,15.49181970,.0001874,97.2859,356.4828,65.7556,20.3974,0,U,69147,999,442,-.36712E-3,-.20002E-3,0
STARLINK-37395,2026-111A,2026-06-09T02:45:45.070272,15.80966386,.000177,53.1585,192.1154,130.8128,229.3049,0,U,69148,999,298,.93417E-3,.18857E-2,0
STARLINK-37346,2026-111B,2026-06-08T19:09:05.770080,15.80841008,.0000916,53.1585,193.6931,41.1598,318.9494,0,U,69149,999,293,.66053E-3,.131475E-2,0
STARLINK-37332,2026-111C,2026-06-09T04:00:03.000096,15.73299232,.0000876,53.1593,191.8661,83.4061,205.1851,0,U,69150,999,425,-.20821E-1,-.2561108E-1,0
STARLINK-37297,2026-111D,2026-06-09T01:12:54.279936,15.80922407,.0001231,53.1587,192.4236,43.2889,316.8230,0,U,69151,999,297,.96003E-3,.193526E-2,0
STARLINK-37317,2026-111E,2026-06-09T01:10:02.959968,15.80895157,.0002886,53.1580,192.4109,271.8258,88.2435,0,U,69152,999,297,.52323E-3,.103944E-2,0
